[{"OBJECT_NAME":"YUNYAO-1 18","OBJECT_ID":"2024-009A","EPOCH":"2026-03-09T23:31:57.952704","MEAN_MOTION":15.20880734,"ECCENTRICITY":0.00048808,"INCLINATION":49.9885,"RA_OF_ASC_NODE":282.3937,"ARG_OF_PERICENTER":244.6654,"MEAN_ANOMALY":115.3794,"EPHEMERIS_TYPE":0,"CLASSIFICATION_TYPE":"U","NORAD_CAT_ID":58758,"ELEMENT_SET_NO":999,"REV_AT_EPOCH":11973,"BSTAR":0.00063747175,"MEAN_MOTION_DOT":0.00014001,"MEAN_MOTION_DDOT":0},{"OBJECT_NAME":"OBJECT D","OBJECT_ID":"2025-197D","EPOCH":"2026-03-09T23:30:56.303712","MEAN_MOTION":15.25287442,"ECCENTRICITY":0.00144425,"INCLINATION":97.4091,"RA_OF_ASC_NODE":257.3677,"ARG_OF_PERICENTER":3.398,"MEAN_ANOMALY":356.7353,"EPHEMERIS_TYPE":0,"CLASSIFICATION_TYPE":"U","NORAD_CAT_ID":65491,"ELEMENT_SET_NO":999,"REV_AT_EPOCH":2822,"BSTAR":0.00037200129,"MEAN_MOTION_DOT":9.321e-5,"MEAN_MOTION_DDOT":0}]
